ONEWEB-0054             
1 45158U 20008AD  26168.08273014  .00000743  00000+0  20918-2 0  9996
2 45158  87.8841  36.2879 0001879  82.8587 277.2754 13.10373031308017
ONEWEB-0056             
1 45159U 20008AE  26168.05431705  .00003497  00000+0  99713-2 0  9995
2 45159  87.8826  36.2877 0002358  84.1087 276.0309 13.10412808308167
ONEWEB-0057             
1 45160U 20008AF  26168.07124306  .00000369  00000+0  10212-2 0  9997
2 45160  87.8840  36.2963 0002138  70.9955 289.1404 13.10375303308332
ONEWEB-0058             
1 45161U 20008AG  26168.05795150 -.00000279  00000+0 -83644-3 0  9999
2 45161  87.8832  36.3052 0001569  83.8326 276.2980 13.10375824308408
ONEWEB-0059             
1 45162U 20008AH  26168.05462338 -.00000102  00000+0 -32734-3 0  9998
2 45162  87.8833  36.3048 0001639  77.2167 282.9144 13.10379242308306
ONEWEB-0062             
1 45163U 20008AJ  26168.07761214  .00000664  00000+0  18645-2 0  9991
2 45163  87.8839  36.2873 0001507  93.1480 266.9819 13.10374501308176
ONEWEB-0065             
1 45164U 20008AK  26168.03452523 -.00007713  00000+0 -22173-1 0  9992
2 45164  87.8842  36.3043 0001749  83.8251 276.3076 13.10304596307863
ONEWEB-0066             
1 45424U 20020A   26168.07038718 -.00000318  00000+0 -93350-3 0  9996
2 45424  87.8885  21.0944 0001680  81.4927 278.6391 13.11414194302663
ONEWEB-0067             
1 45425U 20020B   26168.03198903  .00000433  00000+0  11848-2 0  9993
2 45425  87.8907  21.0240 0001956  82.0030 278.1319 13.11425796302717
ONEWEB-0080             
1 45426U 20020C   26168.03154295  .00000386  00000+0  10529-2 0  9992
2 45426  87.8898  21.0985 0001593  93.4638 266.6672 13.11419464302685
ONEWEB-0090             
1 45427U 20020D   26168.06036161  .00000119  00000+0  29914-3 0  9990
2 45427  87.8893  21.0972 0001769  87.7284 272.4047 13.11414141302650
ONEWEB-0061             
1 45428U 20020E   26168.09228875 -.00000383  00000+0 -11152-2 0  9998
2 45428  87.8892  21.0757 0001756  85.2925 274.8404 13.11418262302619
ONEWEB-0081             
1 45429U 20020F   26168.07377662 -.00000400  00000+0 -11655-2 0  9994
2 45429  87.8888  21.0894 0001791  79.0896 281.0433 13.11415195302720
ONEWEB-0069             
1 45430U 20020G   26168.07560654 -.00000423  00000+0 -12299-2 0  9991
2 45430  87.8892  21.0918 0001786  82.8951 277.2380 13.11415076302650
ONEWEB-0031             
1 45431U 20020H   26168.03479578  .00000492  00000+0  13528-2 0  9992
2 45431  87.8883  21.1053 0001725  90.3973 269.7353 13.11418776302637
ONEWEB-0027             
1 45432U 20020J   26168.25004630 -.00030160  00000+0 -77954-1 0  9999
2 45432  87.9136   5.8524 0002074 104.0436 203.3258 13.17660890  5097
ONEWEB-0064             
1 45433U 20020K   26168.03310414  .00000447  00000+0  12250-2 0  9998
2 45433  87.8889  21.0974 0001793  91.9439 268.1894 13.11417856302669
ONEWEB-0018             
1 45434U 20020L   26168.06517661 -.00000113  00000+0 -35492-3 0  9991
2 45434  87.8886  21.0904 0001432  78.5922 281.5366 13.11417098302614
ONEWEB-0083             
1 45435U 20020M   26168.05528493  .00000328  00000+0  88843-3 0  9990
2 45435  87.8892  21.0861 0001733  86.8453 273.2873 13.11415571302658
ONEWEB-0095             
1 45436U 20020N   26168.04681034  .00000556  00000+0  15332-2 0  9996
2 45436  87.8894  21.0964 0002477  92.9286 267.2126 13.11420797302653
ONEWEB-0092             
1 45437U 20020P   26168.07716635 -.00000459  00000+0 -13308-2 0  9991
2 45437  87.8892  21.0818 0002130  84.1210 276.0161 13.11421950302778
ONEWEB-0085             
1 45438U 20020Q   26168.05500733  .00000348  00000+0  94476-3 0  9991
2 45438  87.8886  21.0930 0001808  85.5441 274.5893 13.11414137302650
ONEWEB-0096             
1 45439U 20020R   26168.05683182  .00000276  00000+0  74399-3 0  9994
2 45439  87.8893  21.0885 0001874  87.8845 272.2497 13.11420710302642
ONEWEB-0037             
1 45440U 20020S   26168.09016433 -.00000284  00000+0 -83164-3 0  9990
2 45440  87.8905  21.0555 0001886  85.8874 274.2470 13.11914302302687
ONEWEB-0042             
1 45441U 20020T   26168.04653413  .00000575  00000+0  15854-2 0  9992
2 45441  87.8893  21.0869 0001828  82.1867 277.9468 13.11415312302640
ONEWEB-0098             
1 45442U 20020U   26167.96613549  .00000564  00000+0  15557-2 0  9997
2 45442  87.8892  21.1123 0001768  87.2571 272.8759 13.11416738302612
ONEWEB-0055             
1 45443U 20020V   26168.09740000 -.00000035  00000+0 -13358-3 0  9999
2 45443  87.8894  21.0849 0001761  87.7328 272.4002 13.11419283302601
ONEWEB-0093             
1 45444U 20020W   26168.07730383 -.00000447  00000+0 -12980-2 0  9997
2 45444  87.8893  21.0816 0001903  73.0388 287.0949 13.11415384302663
ONEWEB-0029             
1 45445U 20020X   26168.02813770  .00000218  00000+0  58003-3 0  9996
2 45445  87.8886  21.1009 0001697  76.8752 283.2565 13.11421694302637
ONEWEB-0068             
1 45446U 20020Y   26168.07703400 -.00000565  00000+0 -16310-2 0  9991
2 45446  87.8895  21.0856 0001720  79.0890 281.0431 13.11416215302587
ONEWEB-0046             
1 45447U 20020Z   26168.06869350 -.00000255  00000+0 -75566-3 0  9993
2 45447  87.8886  21.0933 0001976  78.9815 281.1535 13.11414207302598
