OBJECT_NAME,OBJECT_ID,EPOCH,MEAN_MOTION,ECCENTRICITY,INCLINATION,RA_OF_ASC_NODE,ARG_OF_PERICENTER,MEAN_ANOMALY,EPHEMERIS_TYPE,CLASSIFICATION_TYPE,NORAD_CAT_ID,ELEMENT_SET_NO,REV_AT_EPOCH,BSTAR,MEAN_MOTION_DOT,MEAN_MOTION_DDOT
ONEWEB-0054,2020-008AD,2026-06-17T01:59:07.884096,13.10373031,.0001879,87.8841,36.2879,82.8587,277.2754,0,U,45158,999,30801,.20918E-2,.743E-5,0
ONEWEB-0056,2020-008AE,2026-06-17T01:18:12.993120,13.10412808,.0002358,87.8826,36.2877,84.1087,276.0309,0,U,45159,999,30816,.99713E-2,.3497E-4,0
ONEWEB-0057,2020-008AF,2026-06-17T01:42:35.400384,13.10375303,.0002138,87.8840,36.2963,70.9955,289.1404,0,U,45160,999,30833,.10212E-2,.369E-5,0
ONEWEB-0058,2020-008AG,2026-06-17T01:23:27.009600,13.10375824,.0001569,87.8832,36.3052,83.8326,276.2980,0,U,45161,999,30840,-.83644E-3,-.279E-5,0
ONEWEB-0059,2020-008AH,2026-06-17T01:18:39.460032,13.10379242,.0001639,87.8833,36.3048,77.2167,282.9144,0,U,45162,999,30830,-.32734E-3,-.102E-5,0
ONEWEB-0062,2020-008AJ,2026-06-17T01:51:45.688896,13.10374501,.0001507,87.8839,36.2873,93.1480,266.9819,0,U,45163,999,30817,.18645E-2,.664E-5,0
ONEWEB-0065,2020-008AK,2026-06-17T00:49:42.979872,13.10304596,.0001749,87.8842,36.3043,83.8251,276.3076,0,U,45164,999,30786,-.22173E-1,-.7713E-4,0
ONEWEB-0066,2020-020A,2026-06-17T01:41:21.452352,13.11414194,.000168,87.8885,21.0944,81.4927,278.6391,0,U,45424,999,30266,-.9335E-3,-.318E-5,0
ONEWEB-0067,2020-020B,2026-06-17T00:46:03.852192,13.11425796,.0001956,87.8907,21.0240,82.0030,278.1319,0,U,45425,999,30271,.11848E-2,.433E-5,0
ONEWEB-0080,2020-020C,2026-06-17T00:45:25.310880,13.11419464,.0001593,87.8898,21.0985,93.4638,266.6672,0,U,45426,999,30268,.10529E-2,.386E-5,0
ONEWEB-0090,2020-020D,2026-06-17T01:26:55.243104,13.11414141,.0001769,87.8893,21.0972,87.7284,272.4047,0,U,45427,999,30265,.29914E-3,.119E-5,0
ONEWEB-0061,2020-020E,2026-06-17T02:12:53.748000,13.11418262,.0001756,87.8892,21.0757,85.2925,274.8404,0,U,45428,999,30261,-.11152E-2,-.383E-5,0
ONEWEB-0081,2020-020F,2026-06-17T01:46:14.299968,13.11415195,.0001791,87.8888,21.0894,79.0896,281.0433,0,U,45429,999,30272,-.11655E-2,-.4E-5,0
ONEWEB-0069,2020-020G,2026-06-17T01:48:52.405056,13.11415076,.0001786,87.8892,21.0918,82.8951,277.2380,0,U,45430,999,30265,-.12299E-2,-.423E-5,0
ONEWEB-0031,2020-020H,2026-06-17T00:50:06.355392,13.11418776,.0001725,87.8883,21.1053,90.3973,269.7353,0,U,45431,999,30263,.13528E-2,.492E-5,0
ONEWEB-0027,2020-020J,2026-06-17T06:00:04.000320,13.17660890,.0002074,87.9136,5.8524,104.0436,203.3258,0,U,45432,999,509,-.77954E-1,-.3016E-3,0
ONEWEB-0064,2020-020K,2026-06-17T00:47:40.197696,13.11417856,.0001793,87.8889,21.0974,91.9439,268.1894,0,U,45433,999,30266,.1225E-2,.447E-5,0
ONEWEB-0018,2020-020L,2026-06-17T01:33:51.259104,13.11417098,.0001432,87.8886,21.0904,78.5922,281.5366,0,U,45434,999,30261,-.35492E-3,-.113E-5,0
ONEWEB-0083,2020-020M,2026-06-17T01:19:36.617952,13.11415571,.0001733,87.8892,21.0861,86.8453,273.2873,0,U,45435,999,30265,.88843E-3,.328E-5,0
ONEWEB-0095,2020-020N,2026-06-17T01:07:24.413376,13.11420797,.0002477,87.8894,21.0964,92.9286,267.2126,0,U,45436,999,30265,.15332E-2,.556E-5,0
ONEWEB-0092,2020-020P,2026-06-17T01:51:07.172640,13.11421950,.000213,87.8892,21.0818,84.1210,276.0161,0,U,45437,999,30277,-.13308E-2,-.459E-5,0
ONEWEB-0085,2020-020Q,2026-06-17T01:19:12.633312,13.11414137,.0001808,87.8886,21.0930,85.5441,274.5893,0,U,45438,999,30265,.94476E-3,.348E-5,0
ONEWEB-0096,2020-020R,2026-06-17T01:21:50.269248,13.11420710,.0001874,87.8893,21.0885,87.8845,272.2497,0,U,45439,999,30264,.74399E-3,.276E-5,0
ONEWEB-0037,2020-020S,2026-06-17T02:09:50.198112,13.11914302,.0001886,87.8905,21.0555,85.8874,274.2470,0,U,45440,999,30268,-.83164E-3,-.284E-5,0
ONEWEB-0042,2020-020T,2026-06-17T01:07:00.548832,13.11415312,.0001828,87.8893,21.0869,82.1867,277.9468,0,U,45441,999,30264,.15854E-2,.575E-5,0
ONEWEB-0098,2020-020U,2026-06-16T23:11:14.106336,13.11416738,.0001768,87.8892,21.1123,87.2571,272.8759,0,U,45442,999,30261,.15557E-2,.564E-5,0
ONEWEB-0055,2020-020V,2026-06-17T02:20:15.360000,13.11419283,.0001761,87.8894,21.0849,87.7328,272.4002,0,U,45443,999,30260,-.13358E-3,-.35E-6,0
ONEWEB-0093,2020-020W,2026-06-17T01:51:19.050912,13.11415384,.0001903,87.8893,21.0816,73.0388,287.0949,0,U,45444,999,30266,-.1298E-2,-.447E-5,0
ONEWEB-0029,2020-020X,2026-06-17T00:40:31.097280,13.11421694,.0001697,87.8886,21.1009,76.8752,283.2565,0,U,45445,999,30263,.58003E-3,.218E-5,0
ONEWEB-0068,2020-020Y,2026-06-17T01:50:55.737600,13.11416215,.000172,87.8895,21.0856,79.0890,281.0431,0,U,45446,999,30258,-.1631E-2,-.565E-5,0
ONEWEB-0046,2020-020Z,2026-06-17T01:38:55.118400,13.11414207,.0001976,87.8886,21.0933,78.9815,281.1535,0,U,45447,999,30259,-.75566E-3,-.255E-5,0
